NORAD_CAT_ID,OBJECT_NAME,OBJECT_TYPE,EPOCH,MEAN_MOTION,ECCENTRICITY,INCLINATION,RA_OF_ASC_NODE,ARG_OF_PERICENTER,MEAN_ANOMALY,BSTAR,MEAN_MOTION_DOT,MEAN_MOTION_DDOT,TLE_LINE0,TLE_LINE1,TLE_LINE2,SEMIMAJOR_AXIS,PERIOD,APOGEE,PERIGEE,DECAYED
56471.0,STARLINK-5521,PAYLOAD,2023-08-05 10:24:22,15.69916372,0.0003583,69.9971,1.5134,275.9693,84.1094,2.7413e-05,3.084e-05,0.0,0 STARLINK-5521,1 56471U 23064Z   23217.43358829  .00003084  00000-0  27413-4 0  9991,2 56471  69.9971   1.5134 0003583 275.9693  84.1094 15.69916372 13986,6737.273,91.725,361.552,356.724,0.0
56471.0,STARLINK-5521,PAYLOAD,2023-08-05 18:03:07,15.69929476,0.0003332,69.9982,0.6149,273.2876,86.7939,1.7204e-05,1.857e-05,0.0,0 STARLINK-5521,1 56471U 23064Z   23217.75216640  .00001857  00000-0  17204-4 0  9993,2 56471  69.9982   0.6149 0003332 273.2876  86.7939 15.69929476 14032,6737.236,91.724,361.346,356.856,0.0
56471.0,STARLINK-5521,PAYLOAD,2023-08-05 19:34:54,15.69902483,0.0003363,69.9975,0.4353,270.4528,89.6282,-1.7442e-05,-2.308e-05,0.0,0 STARLINK-5521,1 56471U 23064Z   23217.81590489 -.00002308  00000-0 -17442-4 0  9994,2 56471  69.9975   0.4353 0003363 270.4528  89.6282 15.69902483 14049,6737.313,91.725,361.444,356.912,0.0
56471.0,STARLINK-5521,PAYLOAD,2023-08-06 10:52:24,15.69924453,0.0002901,69.9976,358.6451,251.7334,108.3546,7.8142e-06,7.27e-06,0.0,0 STARLINK-5521,1 56471U 23064Z   23218.45305812  .00000727  00000-0  78142-5 0  9995,2 56471  69.9976 358.6451 0002901 251.7334 108.3546 15.69924453 14145,6737.25,91.724,361.07,357.161,0.0
56471.0,STARLINK-5521,PAYLOAD,2023-08-06 16:59:23,15.69934587,0.0003535,69.9976,357.9288,269.9197,90.1594,1.8831e-05,2.053e-05,0.0,0 STARLINK-5521,1 56471U 23064Z   23218.70791662  .00002053  00000-0  18831-4 0  9997,2 56471  69.9976 357.9288 0003535 269.9197  90.1594 15.69934587 14181,6737.221,91.724,361.468,356.705,0.0
56471.0,STARLINK-5521,PAYLOAD,2023-08-07 09:48:40,15.69932835,0.0003453,69.998,355.9578,270.8531,89.2269,1.6842e-06,-1e-07,0.0,0 STARLINK-5521,1 56471U 23064Z   23219.40880384 -.00000010  00000-0  16842-5 0  9998,2 56471  69.9980 355.9578 0003453 270.8531  89.2269 15.69932835 14292,6737.226,91.724,361.418,356.765,0.0
56471.0,STARLINK-5521,PAYLOAD,2023-08-08 02:37:58,15.69900153,0.0002538,69.9994,353.9887,274.4225,85.6681,2.5481e-05,2.849e-05,0.0,0 STARLINK-5521,1 56471U 23064Z   23220.10970396  .00002849  00000-0  25481-4 0  9999,2 56471  69.9994 353.9887 0002538 274.4225  85.6681 15.69900153 14400,6737.32,91.726,360.895,357.475,0.0
56471.0,STARLINK-5521,PAYLOAD,2023-08-08 08:44:58,15.6992125,0.0003567,69.9993,353.2713,264.5119,95.5669,-3.9736e-06,-6.91e-06,0.0,0 STARLINK-5521,1 56471U 23064Z   23220.36456307 -.00000691  00000-0 -39736-5 0  9992,2 56471  69.9993 353.2713 0003567 264.5119  95.5669 15.69921250 14446,6737.259,91.724,361.527,356.721,0.0
56471.0,STARLINK-5521,PAYLOAD,2023-08-08 13:20:12,15.69930224,0.0003425,69.9977,352.7317,268.0697,92.0106,6.624e-06,5.84e-06,0.0,0 STARLINK-5521,1 56471U 23064Z   23220.55570525  .00000584  00000-0  66240-5 0  9991,2 56471  69.9977 352.7317 0003425 268.0697  92.0106 15.69930224 14477,6737.234,91.724,361.406,356.791,0.0
56471.0,STARLINK-5521,PAYLOAD,2023-08-09 09:12:59,15.69923929,0.0002918,69.9977,350.4027,255.4768,104.6104,1.1183e-06,-7.8e-07,0.0,0 STARLINK-5521,1 56471U 23064Z   23221.38402589 -.00000078  00000-0  11183-5 0  9992,2 56471  69.9977 350.4027 0002918 255.4768 104.6104 15.69923929 14602,6737.252,91.724,361.083,357.151,0.0
56471.0,STARLINK-5521,PAYLOAD,2023-08-09 18:23:31,15.69909899,0.0003561,69.9981,349.3295,271.2526,88.8261,-1.5256e-05,-2.046e-05,0.0,0 STARLINK-5521,1 56471U 23064Z   23221.76633632 -.00002046  00000-0 -15256-4 0  9991,2 56471  69.9981 349.3295 0003561 271.2526  88.8261 15.69909899 14667,6737.292,91.725,361.556,356.758,0.0
56471.0,STARLINK-5521,PAYLOAD,2023-08-10 09:41:01,15.69921694,0.0003673,69.9976,347.5359,272.7212,87.3563,1.5724e-07,-1.94e-06,0.0,0 STARLINK-5521,1 56471U 23064Z   23222.40349427 -.00000194  00000-0  15724-6 0  9992,2 56471  69.9976 347.5359 0003673 272.7212  87.3563 15.69921694 14761,6737.258,91.724,361.598,356.648,0.0
56471.0,STARLINK-5521,PAYLOAD,2023-08-11 10:09:03,15.69924308,0.0003764,69.9983,344.6687,276.5788,83.498,-5.8454e-07,-2.83e-06,0.0,0 STARLINK-5521,1 56471U 23064Z   23223.42296207 -.00000283  00000-0 -58454-6 0  9999,2 56471  69.9983 344.6687 0003764 276.5788  83.4980 15.69924308 14925,6737.251,91.724,361.651,356.58,0.0
56471.0,STARLINK-5521,PAYLOAD,2023-08-12 01:26:33,15.69932219,0.0003717,69.9982,342.88,271.6876,88.3894,3.9243e-05,4.51e-05,0.0,0 STARLINK-5521,1 56471U 23064Z   23224.06011448  .00004510  00000-0  39243-4 0  9990,2 56471  69.9982 342.8800 0003717 271.6876  88.3894 15.69932219 15023,6737.228,91.724,361.597,356.589,0.0
56471.0,STARLINK-5521,PAYLOAD,2023-08-12 10:37:06,15.6992022,0.0003881,69.9983,341.8053,272.5637,87.5114,-1.0785e-05,-1.51e-05,0.0,0 STARLINK-5521,1 56471U 23064Z   23224.44243139 -.00001510  00000-0 -10785-4 0  9995,2 56471  69.9983 341.8053 0003881 272.5637  87.5114 15.69920220 15081,6737.262,91.724,361.742,356.513,0.0
56471.0,STARLINK-5521,PAYLOAD,2023-08-12 18:15:51,15.69928084,0.0003824,69.9982,340.909,271.5162,88.5596,3.898e-07,-1.66e-06,0.0,0 STARLINK-5521,1 56471U 23064Z   23224.76100777 -.00000166  00000-0  38980-6 0  9994,2 56471  69.9982 340.9090 0003824 271.5162  88.5596 15.69928084 15137,6737.24,91.724,361.681,356.528,0.0
56471.0,STARLINK-5521,PAYLOAD,2023-08-13 17:11:21,15.70532964,0.0011514,69.999,338.2199,254.254,105.7386,0.00066195,0.00082494,0.0,0 STARLINK-5521,1 56471U 23064Z   23225.71622563  .00082494  00000-0  66195-3 0  9991,2 56471  69.9990 338.2199 0011514 254.2540 105.7386 15.70532964 15284,6735.51,91.689,365.13,349.62,0.0
56471.0,STARLINK-5521,PAYLOAD,2023-08-14 06:00:02,15.67374517,0.0003347,70.001,336.7305,273.3767,213.7345,-0.0087825,-0.00858865,0.0,0 STARLINK-5521,1 56471U 23064Z   23226.25002315 -.00858865  00000-0 -87825-2 0  9995,2 56471  70.0010 336.7305 0003347 273.3767 213.7345 15.67374517 15379,6744.555,91.873,368.678,364.163,0.0
56471.0,STARLINK-5521,PAYLOAD,2023-08-14 22:00:01,15.66110328,0.0003558,70.0008,334.8649,278.0948,8.0425,-0.010175,-0.00951229,0.0,0 STARLINK-5521,1 56471U 23064Z   23226.91668981 -.00951229  00000-0 -10175-1 0  9996,2 56471  70.0008 334.8649 0003558 278.0948   8.0425 15.66110328 15475,6748.184,91.948,372.45,367.648,0.0
56471.0,STARLINK-5521,PAYLOAD,2023-08-15 14:00:01,15.64783957,0.0003566,70.0014,333.0034,277.8644,164.1167,-0.010245,-0.00911867,0.0,0 STARLINK-5521,1 56471U 23064Z   23227.58334491 -.00911867  00000-0 -10245-1 0  9998,2 56471  70.0014 333.0034 0003566 277.8644 164.1167 15.64783957 15581,6751.997,92.025,376.27,371.454,0.0
56471.0,STARLINK-5521,PAYLOAD,2023-08-15 18:00:00,15.64445726,0.0003627,70.0013,332.5384,276.961,23.5097,-0.010066,-0.00886322,0.0,0 STARLINK-5521,1 56471U 23064Z   23227.75001157 -.00886322  00000-0 -10066-1 0  9995,2 56471  70.0013 332.5384 0003627 276.9610  23.5097 15.64445726 15605,6752.97,92.045,377.285,372.386,0.0
56471.0,STARLINK-5521,PAYLOAD,2023-08-16 22:00:00,15.62195752,0.0003585,70.0008,329.2905,278.483,105.9106,-0.011926,-0.00954163,0.0,0 STARLINK-5521,1 56471U 23064Z   23228.91667824 -.00954163  00000-0 -11926-1 0  9998,2 56471  70.0008 329.2905 0003585 278.4830 105.9106 15.62195752 15789,6759.453,92.178,383.741,378.895,0.0
56471.0,STARLINK-5521,PAYLOAD,2023-08-17 14:00:01,15.60859222,0.0003573,70.001,327.4399,280.1343,250.7835,-0.011714,-0.00895333,0.0,0 STARLINK-5521,1 56471U 23064Z   23229.58334491 -.00895333  00000-0 -11714-1 0  9991,2 56471  70.0010 327.4399 0003573 280.1343 250.7835 15.60859222 15892,6763.311,92.257,387.592,382.759,0.0
56471.0,STARLINK-5521,PAYLOAD,2023-08-18 06:00:02,15.59562597,0.0003627,70.0008,325.5925,273.3467,41.0087,-0.012219,-0.00889154,0.0,0 STARLINK-5521,1 56471U 23064Z   23230.25002315 -.00889154  00000-0 -12219-1 0  9999,2 56471  70.0008 325.5925 0003627 273.3467  41.0087 15.59562597 15999,6767.059,92.334,391.378,386.47,0.0
56471.0,STARLINK-5521,PAYLOAD,2023-08-18 20:00:01,15.5844033,0.0003656,70.0003,323.979,279.0467,68.1401,-0.013468,-0.00934564,0.0,0 STARLINK-5521,1 56471U 23064Z   23230.83334491 -.00934564  00000-0 -13468-1 0  9999,2 56471  70.0003 323.9790 0003656 279.0467  68.1401 15.58440330 16081,6770.307,92.4,394.648,389.697,0.0
56471.0,STARLINK-5521,PAYLOAD,2023-08-19 22:00:00,15.56319483,0.0003514,69.9997,320.99,276.1149,22.9558,-0.014759,-0.00944622,0.0,0 STARLINK-5521,1 56471U 23064Z   23231.91667824 -.00944622  00000-0 -14759-1 0  9998,2 56471  69.9997 320.9900 0003514 276.1149  22.9558 15.56319483 16250,6776.457,92.526,400.703,395.941,0.0
56471.0,STARLINK-5521,PAYLOAD,2023-08-20 12:00:00,15.55164719,0.0003627,69.9999,319.3844,276.6766,48.4486,-0.014865,-0.00914512,0.0,0 STARLINK-5521,1 56471U 23064Z   23232.50001157 -.00914512  00000-0 -14865-1 0  9998,2 56471  69.9999 319.3844 0003627 276.6766  48.4486 15.55164719 16348,6779.811,92.595,404.135,399.217,0.0
56471.0,STARLINK-5521,PAYLOAD,2023-08-21 14:00:01,15.53030179,0.0003539,69.9994,316.4096,278.9158,345.3796,-0.015555,-0.00887546,0.0,0 STARLINK-5521,1 56471U 23064Z   23233.58334491 -.00887546  00000-0 -15555-1 0  9990,2 56471  69.9994 316.4096 0003539 278.9158 345.3796 15.53030179 16514,6786.022,92.722,410.288,405.485,0.0
56471.0,STARLINK-5521,PAYLOAD,2023-08-22 14:00:01,15.51178469,0.0003562,69.9995,313.6721,279.2597,170.8005,0.00085848,0.00050503,0.0,0 STARLINK-5521,1 56471U 23064Z   23234.58334491  .00050503  00000-0  85848-3 0  9998,2 56471  69.9995 313.6721 0003562 279.2597 170.8005 15.51178469 16670,6791.421,92.833,415.705,410.867,0.0
56471.0,STARLINK-5521,PAYLOAD,2023-08-23 14:00:01,15.51241807,0.0003598,69.9999,310.9374,277.7606,355.0194,-6.9131e-05,-4.226e-05,0.0,0 STARLINK-5521,1 56471U 23064Z   23235.58334491 -.00004226  00000-0 -69131-4 0  9990,2 56471  69.9999 310.9374 0003598 277.7606 355.0194 15.51241807 16821,6791.236,92.829,415.545,410.658,0.0
